# TLMForwarder

#############<br>
 Attached DLL List<br>
#############<br>

53106.dll	GreenCube	(IO-117)<br>
49069.dll	LEDSAT<br>
59508.dll	KASHIWA<br>
57175.dll	CubeBel-2	(EU11S)<br>
47959.dll	GRBAlpha<br>
58567.dll	HADES-D		(SO-121)<br>

####################
Handmade TLE List

Replace TLE with your List.
But never change title strings include '#' lines.
And TLE List should start under one empty line.

リストをお望みのものに置き換えてください。
但し、この"#"のラインで囲まれたタイトル部分は編集しないでください。
また､リストは"############"の下に一行開けて貼り付けてください。

####################

EOS-07
1 55562U 23019A   23339.32497406  .00035683  00000+0  71201-3 0  9991
2 55562  37.1826  31.4403 0001374 286.7673  73.2936 15.45940239 46104
SUCHAI2
1 52192U 22033AM  23176.22728805  .00021691  00000-0  70510-3 0  9997
2 52192  97.3437 256.9765 0009462 140.5971 219.5961 15.31878001 68531
SUCHAI3
1 52191U 22033AL  23175.68665361  .00025445  00000-0  78387-3 0  9993
2 52191  97.3643 257.3334 0009829 118.6673 241.5559 15.33560589 68436
KKS-1
1 33499U 09002H   24162.58598250  .00002785  00000-0  38607-3 0  9995
2 33499  98.1397  64.1466 0009312 143.8109 216.3733 14.78769327827146
SanoSat-1
1 51031U 22002AZ  23363.15863394  .00225259  00000+0  19581-2 0  9992
2 51031  97.4148  77.5622 0005268 256.6209 103.4465 15.68355541109001
MEZNSAT
1 46489U 20068D   24062.87872008  .00018379  00000-0  82734-3 0  9996
2 46489  97.7996  24.4781 0010644 310.6428  49.3881 15.21093181188589
PY4-1
1 98954U 24043D   24066.22371500  .00000000  00000+0  14478-2 0    04
2 98954  97.4532 191.5795 0010251 283.8981 122.7960 15.17070569    00
PY4-2
1 98955U 24043D   24070.79182900  .00000000  00000+0 -24365-2 0    03
2 98955  97.4534 196.0745 0010007 262.8292 237.9871 15.17031401    01
PY4-3
1 98956U 24043K   24068.33010400  .00000000  00000+0  12767-2 0    08
2 98956  97.4718 193.6597 0011111 265.4824 121.8324 15.17490058    02
PY4-4
1 98957U 24043K   24071.03591400  .00000000  00000+0  65352-3 0    03
2 98957  97.4637 196.3215 0011129 255.4357 145.0290 15.17660176    09
TRISAT-R
1 53108U          24087.41666667  .00000000  00000-0  00000-0 0    03
2 53108  70.1723 218.4492 0013148 124.7464  62.5563  6.42152367    07
StratoSat TK-1
1 57167U 23091B   24097.57091029  .00011751  00000+0  73035-3 0  9991
2 57167  97.6205 150.9491 0015464   9.7030 350.4494 15.09710761 42748
KASHIWA_tmpid
1 99197U 98067WH  24152.96641078  .00120220  00000-0  12891-2 0  9992
2 99197  51.6340  33.5561 0006520 225.2579 134.7886 15.62902295  7955
VIZARD-meteo
1 57189U 23091Z   24104.85629408  .00007590  00000-0  48329-3 0  9998
2 57189  97.6209 158.4487 0011576 330.8045  29.2535 15.08996659 43859
CURTIS
1 59507U 98067WG  24104.04885101  .00048537  00000-0  82192-3 0  9996
2 59507  51.6374 278.3723 0003426 110.1548 249.9810 15.51052407   330
MicroOrbiter-1
1 59508U 98067WH  24103.98454405  .00061205  00000-0  10354-2 0  9995
2 59508  51.6371 278.6926 0003950 102.0756 258.0676 15.50978607   327
UTMN2
1 57203U 23091AP  24106.55338904  .00010443  00000+0  66907-3 0  9994
2 57203  97.6213 160.0408 0011937 324.4676  35.5756 15.08668119 44104
KILICK-1
1 98908U 98067A   24109.87569424  .00025888  00000-0  45352-3 0  9994
2 98908  51.6387 249.4981 0004825  77.1403  58.5009 15.50400337449349
QMSAT
1 98909U 98067A   24109.87569424  .00025888  00000+0  45352-3 0  9993
2 98909  51.6387 249.4981 0004825  77.1403  58.5009 15.50400337449349
VIOLET
1 59597U 98067WQ  24161.92048320  .00119462  00000-0  13274-2 0  9999
2 59597  51.6381 349.1183 0007316 247.6270 112.3949 15.61984435  8198
Nanozond-1
1 57190U 23091AA  24130.57390210  .00015468  00000-0  90888-3 0  9994
2 57190  97.6141 184.3669 0010261 235.3155 124.7108 15.11740894 47760
HADES-D
1 58567U 23174CY  24183.17961421  .00058899  00000-0  19343-2 0  9998
2 58567  97.4543 258.9627 0013472 177.0274 183.1050 15.31276393 35926
/EX
